LEO EXPRESS 1           
1 58301U 23174AX  26068.76789509  .00017303  00000+0  49741-3 0  9998
2 58301  97.5222 152.4092 0078735 115.9210 245.0174 15.32756831129655
STARLINK-32372          
1 61960U 24210B   26068.29866181  .00037691  00000+0  13711-2 0  9994
2 61960  42.9993 181.7408 0001873 287.3344  72.7303 15.27605117 74726
